CTC1_L_00107016-03
1 10062U 23951YQ  26075.70030093  .00000000  00000+0  00000-0 0  9990
2 10062  45.0000 180.0000 0000000   0.0000   0.0000 14.33516687    14
CTC1_L_00107016-04
1 10063U 23234W   26075.70030093  .00000000  00000+0  00000-0 0  9995
2 10063  45.0000 180.0000 0000000   0.0000  90.0000 14.33516687    14
CTC1_L_00107017-01
1 10064U 25219HK  26075.70030093  .00000000  00000+0  00000-0 0  9991
2 10064  45.0000 192.0000 0000000   0.0000 192.0000 14.33516687    11
CTC1_L_00107017-02
1 10065U 26835ZY  26075.70030093  .00000000  00000+0  00000-0 0  9997
2 10065  45.0000 192.0000 0000000   0.0000 282.0000 14.33516687    12
CTC1_L_00107017-03
1 10066U 22233JR  26075.70030093  .00000000  00000+0  00000-0 0  9996
2 10066  45.0000 192.0000 0000000   0.0000  12.0000 14.33516687    14
CTC1_L_00107017-04
1 10067U 23373JG  26075.70030093  .00000000  00000+0  00000-0 0  9993
2 10067  45.0000 192.0000 0000000   0.0000 102.0000 14.33516687    15
CTC1_L_00107018-01
1 10068U 25790ST  26075.70030093  .00000000  00000+0  00000-0 0  9999
2 10068  45.0000 204.0000 0000000   0.0000 204.0000 14.33516687    13
CTC1_L_00107018-02
1 10069U 22966EW  26075.70030093  .00000000  00000+0  00000-0 0  9992
2 10069  45.0000 204.0000 0000000   0.0000 294.0000 14.33516687    13
CTC1_L_00107018-03
1 10070U 25653SP  26075.70030093  .00000000  00000+0  00000-0 0  9990
2 10070  45.0000 204.0000 0000000   0.0000  24.0000 14.33516687    16
CTC1_L_00107018-04
1 10071U 26197TY  26075.70030093  .00000000  00000+0  00000-0 0  9995
2 10071  45.0000 204.0000 0000000   0.0000 114.0000 14.33516687    17
CTC1_L_00107019-01
1 10072U 22965AW  26075.70030093  .00000000  00000+0  00000-0 0  9995
2 10072  45.0000 216.0000 0000000   0.0000 216.0000 14.33516687    14
CTC1_L_00107019-02
1 10073U 23755BY  26075.70030093  .00000000  00000+0  00000-0 0  9994
2 10073  45.0000 216.0000 0000000   0.0000 306.0000 14.33516687    15
CTC1_L_00107019-03
1 10074U 25733XC  26075.70030093  .00000000  00000+0  00000-0 0  9993
2 10074  45.0000 216.0000 0000000   0.0000  36.0000 14.33516687    16
CTC1_L_00107019-04
1 10075U 22064TK  26075.70030093  .00000000  00000+0  00000-0 0  9998
2 10075  45.0000 216.0000 0000000   0.0000 126.0000 14.33516687    17
CTC1_L_00107020-01
1 10076U 22352YB  26075.70030093  .00000000  00000+0  00000-0 0  9999
2 10076  45.0000 228.0000 0000000   0.0000 228.0000 14.33516687    14
CTC1_L_00107020-02
1 10077U 23492AV  26075.70030093  .00000000  00000+0  00000-0 0  9996
2 10077  45.0000 228.0000 0000000   0.0000 318.0000 14.33516687    15
CTC1_L_00107020-03
1 10078U 24441OL  26075.70030093  .00000000  00000+0  00000-0 0  9992
2 10078  45.0000 228.0000 0000000   0.0000  48.0000 14.33516687    16
CTC1_L_00107020-04
1 10079U 23344SD  26075.70030093  .00000000  00000+0  00000-0 0  9994
2 10079  45.0000 228.0000 0000000   0.0000 138.0000 14.33516687    17
CTC1_L_00107021-01
1 10080U 23913VT  26075.70030093  .00000000  00000+0  00000-0 0  9998
2 10080  45.0000 240.0000 0000000   0.0000 240.0000 14.33516687    17
CTC1_L_00107021-02
1 10081U 23169IE  26075.70030093  .00000000  00000+0  00000-0 0  9992
2 10081  45.0000 240.0000 0000000   0.0000 330.0000 14.33516687    18
CTC1_L_00107021-03
1 10082U 24438HB  26075.70030093  .00000000  00000+0  00000-0 0  9993
2 10082  45.0000 240.0000 0000000   0.0000  60.0000 14.33516687    19
CTC1_L_00107021-04
1 10083U 24374EB  26075.70030093  .00000000  00000+0  00000-0 0  9993
2 10083  45.0000 240.0000 0000000   0.0000 150.0000 14.33516687    10
CTC1_L_00107022-01
1 10084U 24908SI  26075.70030093  .00000000  00000+0  00000-0 0  9997
2 10084  45.0000 252.0000 0000000   0.0000 252.0000 14.33516687    17
CTC1_L_00107022-02
1 10085U 23540ZE  26075.70030093  .00000000  00000+0  00000-0 0  9999
2 10085  45.0000 252.0000 0000000   0.0000 342.0000 14.33516687    18
CTC1_L_00107022-03
1 10086U 23615YN  26075.70030093  .00000000  00000+0  00000-0 0  9993
2 10086  45.0000 252.0000 0000000   0.0000  72.0000 14.33516687    19
CTC1_L_00107022-04
1 10087U 25829NI  26075.70030093  .00000000  00000+0  00000-0 0  9993
2 10087  45.0000 252.0000 0000000   0.0000 162.0000 14.33516687    10
CTC1_L_00107023-01
1 10088U 24978DD  26075.70030093  .00000000  00000+0  00000-0 0  9998
2 10088  45.0000 264.0000 0000000   0.0000 264.0000 14.33516687    17
CTC1_L_00107023-02
1 10089U 23433VI  26075.70030093  .00000000  00000+0  00000-0 0  9994
2 10089  45.0000 264.0000 0000000   0.0000 354.0000 14.33516687    18
CTC1_L_00107023-03
1 10090U 26232MW  26075.70030093  .00000000  00000+0  00000-0 0  9996
2 10090  45.0000 264.0000 0000000   0.0000  84.0000 14.33516687    10
CTC1_L_00107023-04
1 10091U 25325CH  26075.70030093  .00000000  00000+0  00000-0 0  9999
2 10091  45.0000 264.0000 0000000   0.0000 174.0000 14.33516687    11
CTC1_L_00107024-01
1 10092U 25745UB  26075.70030093  .00000000  00000+0  00000-0 0  9996
2 10092  45.0000 276.0000 0000000   0.0000 276.0000 14.33516687    18
CTC1_L_00107024-02
1 10093U 25625VU  26075.70030093  .00000000  00000+0  00000-0 0  9994
2 10093  45.0000 276.0000 0000000   0.0000   6.0000 14.33516687    10
CTC1_L_00107024-03
1 10094U 24733DT  26075.70030093  .00000000  00000+0  00000-0 0  9994
2 10094  45.0000 276.0000 0000000   0.0000  96.0000 14.33516687    10
CTC1_L_00107024-04
1 10095U 25281F   26075.70030093  .00000000  00000+0  00000-0 0  9994
2 10095  45.0000 276.0000 0000000   0.0000 186.0000 14.33516687    11
CTC1_L_00107025-01
1 10096U 25422RD  26075.70030093  .00000000  00000+0  00000-0 0  9992
2 10096  45.0000 288.0000 0000000   0.0000 288.0000 14.33516687    18
CTC1_L_00107025-02
1 10097U 25790NG  26075.70030093  .00000000  00000+0  00000-0 0  9991
2 10097  45.0000 288.0000 0000000   0.0000  18.0000 14.33516687    10
CTC1_L_00107025-03
1 10098U 23550QR  26075.70030093  .00000000  00000+0  00000-0 0  9994
2 10098  45.0000 288.0000 0000000   0.0000 108.0000 14.33516687    11
CTC1_L_00107025-04
1 10099U 24950DC  26075.70030093  .00000000  00000+0  00000-0 0  9990
2 10099  45.0000 288.0000 0000000   0.0000 198.0000 14.33516687    11
CTC1_L_00107026-01
1 10100U 22614WM  26075.70030093  .00000000  00000+0  00000-0 0  9998
2 10100  45.0000 300.0000 0000000   0.0000 300.0000 14.33516687    14
CTC1_L_00107026-02
1 10101U 22846HP  26075.70030093  .00000000  00000+0  00000-0 0  9996
2 10101  45.0000 300.0000 0000000   0.0000  30.0000 14.33516687    15
CTC1_L_00107026-03
1 10102U 24561RO  26075.70030093  .00000000  00000+0  00000-0 0  9993
2 10102  45.0000 300.0000 0000000   0.0000 120.0000 14.33516687    16
CTC1_L_00107026-04
1 10103U 26590GJ  26075.70030093  .00000000  00000+0  00000-0 0  9998
2 10103  45.0000 300.0000 0000000   0.0000 210.0000 14.33516687    17
CTC1_L_00107027-01
1 10104U 23359K   26075.70030093  .00000000  00000+0  00000-0 0  9999
2 10104  45.0000 312.0000 0000000   0.0000 312.0000 14.33516687    14
CTC1_L_00107027-02
1 10105U 23980HH  26075.70030093  .00000000  00000+0  00000-0 0  9990
2 10105  45.0000 312.0000 0000000   0.0000  42.0000 14.33516687    15
CTC1_L_00107027-03
1 10106U 23395FK  26075.70030093  .00000000  00000+0  00000-0 0  9991
2 10106  45.0000 312.0000 0000000   0.0000 132.0000 14.33516687    16
CTC1_L_00107027-04
1 10107U 22659NA  26075.70030093  .00000000  00000+0  00000-0 0  9994
2 10107  45.0000 312.0000 0000000   0.0000 222.0000 14.33516687    17
CTC1_L_00107028-01
1 10108U 22393NA  26075.70030093  .00000000  00000+0  00000-0 0  9990
2 10108  45.0000 324.0000 0000000   0.0000 324.0000 14.33516687    14
CTC1_L_00107028-02
1 10109U 23892RY  26075.70030093  .00000000  00000+0  00000-0 0  9996
2 10109  45.0000 324.0000 0000000   0.0000  54.0000 14.33516687    15
CTC1_L_00107028-03
1 10110U 26217YY  26075.70030093  .00000000  00000+0  00000-0 0  9992
2 10110  45.0000 324.0000 0000000   0.0000 144.0000 14.33516687    17
CTC1_L_00107028-04
1 10111U 23814ZJ  26075.70030093  .00000000  00000+0  00000-0 0  9993
2 10111  45.0000 324.0000 0000000   0.0000 234.0000 14.33516687    18
CTC1_L_00107029-01
1 10112U 23687VQ  26075.70030093  .00000000  00000+0  00000-0 0  9992
2 10112  45.0000 336.0000 0000000   0.0000 336.0000 14.33516687    15
CTC1_L_00107029-02
1 10113U 22283WQ  26075.70030093  .00000000  00000+0  00000-0 0  9994
2 10113  45.0000 336.0000 0000000   0.0000  66.0000 14.33516687    16
CTC1_L_00107029-03
1 10114U 25640CR  26075.70030093  .00000000  00000+0  00000-0 0  9995
2 10114  45.0000 336.0000 0000000   0.0000 156.0000 14.33516687    17
CTC1_L_00107029-04
1 10115U 26557ZF  26075.70030093  .00000000  00000+0  00000-0 0  9994
2 10115  45.0000 336.0000 0000000   0.0000 246.0000 14.33516687    18
CTC1_L_00107030-01
1 10116U 23152DZ  26075.70030093  .00000000  00000+0  00000-0 0  9993
2 10116  45.0000 348.0000 0000000   0.0000 348.0000 14.33516687    15
CTC1_L_00107030-02
1 10117U 22789UD  26075.70030093  .00000000  00000+0  00000-0 0  9999
2 10117  45.0000 348.0000 0000000   0.0000  78.0000 14.33516687    16
CTC1_L_00107030-03
1 10118U 25655HW  26075.70030093  .00000000  00000+0  00000-0 0  9995
2 10118  45.0000 348.0000 0000000   0.0000 168.0000 14.33516687    17
CTC1_L_00107030-04
1 10119U 25018RZ  26075.70030093  .00000000  00000+0  00000-0 0  9999
2 10119  45.0000 348.0000 0000000   0.0000 258.0000 14.33516687    18
